{"signature":{"version":"1.3","source":"NASA/JPL Small-Body Database (SBDB) API"},"object":{"spkid":"2134340","pha":false,"kind":"an","fullname":"134340 Pluto (1930 BM)","des":"134340","prefix":null,"neo":false,"shortname":"134340 Pluto","orbit_class":{"name":"TransNeptunian Object","code":"TNO"},"orbit_id":"0"},"orbit":{"t_jup":"5.228","comment":null,"source":"JPL","producer":"E.M. Standish","condition_code":null,"sb_used":null,"n_obs_used":4379,"equinox":"J2000","orbit_id":"0","n_del_obs_used":null,"rms":null,"last_obs":"2004-09-09","epoch":"2454000.5","elements":[{"name":"e","value":"0.25","title":"eccentricity","units":null,"label":"e","sigma":null},{"name":"a","value":"39.4","title":"semi-major axis","label":"a","units":"au","sigma":null},{"sigma":null,"units":"au","label":"q","title":"perihelion distance","value":"29.6","name":"q"},{"value":"17.1","name":"i","sigma":null,"title":"inclination; angle with respect to x-y ecliptic plane","label":"i","units":"deg"},{"value":"110","name":"om","sigma":null,"label":"node","units":"deg","title":"longitude of the ascending node"},{"title":"argument of perihelion","units":"deg","label":"peri","sigma":null,"name":"w","value":"113"},{"name":"ma","value":"25.2","title":"mean anomaly","units":"deg","label":"M","sigma":null},{"label":"tp","units":"TDB","title":"time of perihelion passage","sigma":null,"name":"tp","value":"2447654.529"},{"name":"per","value":"90500","title":"sidereal orbital period","label":"period","units":"d","sigma":null},{"sigma":null,"title":"mean motion","units":"deg/d","label":"n","value":"0.00398","name":"n"},{"sigma":null,"label":"Q","units":"au","title":"aphelion distance","value":"49.3","name":"ad"}],"not_valid_after":null,"pe_used":"DE413","soln_date":null,"data_arc":"33102","moid_jup":null,"model_pars":[],"moid":"28.6","not_valid_before":null,"first_obs":"1914-01-23","cov_epoch":"2454000.5","n_dop_obs_used":null,"two_body":null},"phys_par":[{"sigma":null,"ref":"MPO720798","name":"H","value":"-0.45","title":"absolute magnitude","units":null,"notes":null,"desc":"absolute magnitude (magnitude at 1 au from Sun and observer)"},{"desc":"body rotation period (synodic)","notes":"REFERENCE LIST:[Walker, M.F.; Hardie, R. (1955) Pub. Ast. Soc. Pacific 67, 224.], [Tholen, D.J.; Buie, M.W. (1997) in Pluto and Charon (S.A. Stern and D.J. Tholen, eds.) pp 193-219. Univ. Arizon Press, Tucson.]","title":"rotation period","units":"h","ref":"LCDB (Rev. 2023-February); Warner et al., 2009","name":"rot_per","value":"153.2935","sigma":null}]}
